#aV2014  4 12  0  0  0.00000000     288 DD+AD WGS84 FIT  NGA
## 1787 518400.00000000   300.00000000 56759 0.0000000000000
+   31     1  2  3  4  5  7  8  9 10 11 12 13 14 15 16 17 18
+         19 20 21 22 23 24 25 26 27 28 29 30 31 32  0  0  0
+          0  0  0  0  0  0  0  0  0  0  0  0  0  0  0  0  0
+          0  0  0  0  0  0  0  0  0  0  0  0  0  0  0  0  0
+          0  0  0  0  0  0  0  0  0  0  0  0  0  0  0  0  0
++         2  2  2  2  2  2  2  2  2  2  2  2  2  2  2  2  2
++         2  2  2  2  2  2  2  2  2  2  2  2  2  2  0  0  0
++         0  0  0  0  0  0  0  0  0  0  0  0  0  0  0  0  0
++         0  0  0  0  0  0  0  0  0  0  0  0  0  0  0  0  0
++         0  0  0  0  0  0  0  0  0  0  0  0  0  0  0  0  0
%c cc cc ccc ccc cccc cccc cccc cccc ccccc ccccc ccccc ccccc
%c cc cc ccc ccc cccc cccc cccc cccc ccccc ccccc ccccc ccccc
%f  0.0000000  0.000000000  0.00000000000  0.000000000000000
%f  0.0000000  0.000000000  0.00000000000  0.000000000000000
%i    0    0    0    0      0      0      0      0         0
%i    0    0    0    0      0      0      0      0         0
/*      NGA, ST. LOUIS,MO.                                  
/*   EPHEMERIS COMPUTED FROM  1 DAYS OF DATA                
/*   EPOCHA SMOOTHER                                       
/* CCCCCCCCCCCCCCCCCCCCCCCCCCCCCCCCCCCCCCCCCCCCCCCCCCCCCCCCC
*  2014  4 12 11 35  0.00000000
P  1 -11648.986729  21977.173074  -9153.209209      8.254362                    
V  1  -9851.805848   6715.958108  28884.751225      0.015590                    
P  2  20804.909022 -11338.840917 -11195.166030    489.282466                    
V  2  -7213.959996  13447.459086 -26855.304805      0.021401                    
P  3 -11881.617248  10425.922662  20785.880557    350.768212                    
V  3 -12839.173291 -24633.077815   5046.719028      0.049209                    
P  4  17528.612158   2635.681603 -20153.370117      6.596104                    
V  4 -15901.556583  19235.660330 -11254.927280      0.002175                    
P  5  23031.671986  -4257.504578  12638.206364   -379.328308                    
V  5  15169.020736   5887.959926 -25420.842055      0.021585                    
P  7   1133.352598  17941.439374  19504.262535    334.447939                    
V  7 -18039.632515  16910.606028 -14878.534783      0.042291                    
P  8   9938.007468  10560.662933  22406.715354     12.871633                    
V  8 -21442.408119  17979.898269    454.711713      0.002380                    
P  9  12244.917199   8030.470022  21637.859448    319.558875                    
V  9 -19361.076773  21176.694637   2854.114363      0.029064                    
P 10  24814.779850   9213.522589  -4464.724785   -121.399005                    
V 10  -5735.866515   1642.232088 -30405.066303     -0.012326                    
P 11 -11724.319047  23651.928560   1087.208049   -480.038427                    
V 11  -3935.137886  -3943.136644  30198.588866     -0.031768                    
P 12   7919.496012 -12851.029520 -21888.353371    198.118109                    
V 12  26583.256767   7439.286681   5482.604312      0.024259                    
P 13   4393.920778  26082.800423  -1245.160532     10.542835                    
V 13  -2640.083265   -917.202067 -32180.009620     -0.039155                    
P 14 -13889.212726 -17878.792363 -13790.994004    182.332056                    
V 14  -2194.959171 -17767.850408  24713.275028     -0.033575                    
P 15   7348.847061 -18203.154397  17702.701245   -173.467817                    
V 15   9662.020603  20738.786752  17547.868077     -0.021510                    
P 16 -23199.484702   2338.111303  13010.584812   -223.564547                    
V 16 -15422.107829  -5760.781800 -26023.611114      0.017393                    
P 17  14761.505712  16615.582313 -14451.024169    -84.392412                    
V 17   3039.740836  18540.461773  23773.262505     -0.032350                    
P 18 -12603.071768 -16155.097881  17515.435143    312.772674                    
V 18  21308.003861   2573.341978  17833.903124      0.023189                    
P 19  -9677.251071  16037.067768  18515.608960   -450.549496                    
V 19  -6666.973999 -23052.353939  16803.064463     -0.022960                    
P 20  -6453.290406  15010.026924 -21123.860774    178.916537                    
V 20 -26105.414116  -4759.106908   4702.107272      0.036890                    
P 21  -5164.504266 -16840.008377  20392.975612   -354.883235                    
V 21  17637.515576 -17404.414296 -10697.389603     -0.022404                    
P 22 -22901.482338 -11146.503546   8024.686930    226.276333                    
V 22  10444.670978  -1325.614472  28544.546107      0.026166                    
P 23  -2346.111437  23025.221289 -12546.900835    -11.737307                    
V 23  -7450.070618 -14743.435517 -25865.369250     -0.031567                    
P 24  15118.089257 -21349.912280  -4315.352004    -26.556866                    
V 24   5859.682279  -2087.384452  31097.546363     -0.007005                    
P 25  -6146.120360 -15649.170286 -20660.167096     21.542123                    
V 25  25560.105157   4845.567079 -11179.438274      0.010217                    
P 26  13532.434344  -6018.280601  21366.945989    111.034692                    
V 26   6363.198870  27996.543721   4031.296570     -0.113195                    
P 27 -14623.047217   4078.989423  21792.134441    -19.850451                    
V 27  -8346.009425 -26381.175937   -611.040648      0.007079                    
P 28  20010.550182  13740.048030  11539.410168    346.708720                    
V 28 -13512.465850  -2396.673392  27621.357023      0.029502                    
P 29  -4649.367765 -26008.183136  -2932.268881    524.919795                    
V 29   3377.135416   3017.700125 -31606.885256      0.026075                    
P 30   9510.330713  11954.294146  21719.576905     -0.017896                    
V 30 -20306.154960  18697.879226  -1419.957871     -0.028465                    
P 31 -19251.701454   2261.821970 -18149.148010    334.189553                    
V 31  15370.174786 -17404.145958 -18015.090935      0.001299                    
P 32 -18201.834294   7467.052506 -17521.528592   -450.919914                    
V 32 -20927.217343  -8862.223853  18434.103233      0.075987                    
EOF
